GSAT0101 (PRN E11)      
1 37846U 11060A   24159.75135609 -.00000099  00000+0  00000+0 0  9990
2 37846  57.1286   1.7874 0003690  45.3499 314.7130  1.70475936 78644
GSAT0102 (PRN E12)      
1 37847U 11060B   24158.21877817 -.00000096  00000+0  00000+0 0  9992
2 37847  57.1293   1.8291 0003602   6.3701 178.8253  1.70475333 78492
GSAT0103 (PRN E19)      
1 38857U 12055A   24157.44409960  .00000014  00000+0  00000+0 0  9992
2 38857  55.4024 121.9279 0005608 280.7939  79.0858  1.70473563 72362
GSAT0201 (PRN E18)      
1 40128U 14050A   24159.38556062 -.00000098  00000+0  00000+0 0  9997
2 40128  49.6707 303.4575 1611297 150.8594 219.1999  1.85519407 64590
GSAT0202 (PRN E14)      
1 40129U 14050B   24158.56590474 -.00000100  00000+0  00000+0 0  9996
2 40129  49.6884 302.5670 1609985 151.6285 218.1869  1.85520080 66743
GSAT0203 (PRN E26)      
1 40544U 15017A   24158.35744969 -.00000097  00000+0  00000+0 0  9993
2 40544  56.9239   1.7608 0001498 279.8801  80.1391  1.70475906 56576
GSAT0204 (PRN E22)      
1 40545U 15017B   24158.61162999 -.00000098  00000+0  00000+0 0  9991
2 40545  56.9299   1.7692 0001163 235.4033 124.6212  1.70475580 19629
GSAT0205 (PRN E24)      
1 40889U 15045A   24158.37984256  .00000004  00000+0  00000+0 0  9990
2 40889  55.2221 242.0692 0003295  31.4545 328.6295  1.70473951 54386
GSAT0206 (PRN E30)      
1 40890U 15045B   24158.01390575  .00000004  00000+0  00000+0 0  9998
2 40890  55.2210 242.0747 0001124 354.7070   5.3540  1.70473725 54404
GSAT0209 (PRN E09)      
1 41174U 15079A   24158.18353045  .00000009  00000+0  00000+0 0  9995
2 41174  55.4212 121.6168 0005345 314.6644  45.2318  1.70474068 52140
GSAT0208 (PRN E08)      
1 41175U 15079B   24159.57644969  .00000007  00000+0  00000+0 0  9996
2 41175  55.4207 121.5765 0004669 314.3621  45.5381  1.70474061 52749
GSAT0211 (PRN E02)      
1 41549U 16030A   24159.11278344  .00000004  00000+0  00000+0 0  9996
2 41549  55.3690 242.0545 0002646 312.4145  47.6311  1.70473989 50031
GSAT0210 (PRN E01)      
1 41550U 16030B   24159.99064916  .00000002  00000+0  00000+0 0  9990
2 41550  55.3678 242.0313 0002527 264.3130  95.7291  1.70474065 50047
GSAT0207 (PRN E07)      
1 41859U 16069A   24159.06375216  .00000006  00000+0  00000+0 0  9994
2 41859  55.0862 121.5965 0005594 302.9839  56.9006  1.70474057 46787
GSAT0212 (PRN E03)      
1 41860U 16069B   24159.50463903  .00000006  00000+0  00000+0 0  9996
2 41860  55.0842 121.5808 0004173 324.3345  35.5759  1.70474249 47046
GSAT0213 (PRN E04)      
1 41861U 16069C   24158.11321343  .00000009  00000+0  00000+0 0  9997
2 41861  55.0857 121.6258 0005605 286.6700  73.2085  1.70472881 46881
GSAT0214 (PRN E05)      
1 41862U 16069D   24157.08548548  .00000015  00000+0  00000+0 0  9998
2 41862  55.0840 121.6480 0004621 290.4721  69.4228  1.70474240 46993
GSAT0215 (PRN E21)      
1 43055U 17079A   24159.92160618  .00000002  00000+0  00000+0 0  9995
2 43055  55.3452 241.8542 0002257 251.8387 108.2078  1.70474764 40380
GSAT0216 (PRN E25)      
1 43056U 17079B   24159.62672977  .00000003  00000+0  00000+0 0  9990
2 43056  55.3456 241.8622 0003556 267.7350  92.2946  1.70474869 40363
GSAT0217 (PRN E27)      
1 43057U 17079C   24158.08743663  .00000004  00000+0  00000+0 0  9992
2 43057  55.3446 241.9033 0003262 280.8752  79.1511  1.70474715 40357
GSAT0218 (PRN E31)      
1 43058U 17079D   24158.89407347  .00000004  00000+0  00000+0 0  9998
2 43058  55.3444 241.8787 0003919 265.8825  94.1401  1.70474828 40398
GSAT0221 (PRN E15)      
1 43564U 18060A   24158.20818414 -.00000096  00000+0  00000+0 0  9999
2 43564  57.3039   1.7624 0002793 305.5725  54.4383  1.70475700 36534
GSAT0222 (PRN E33)      
1 43565U 18060B   24156.08033725 -.00000090  00000+0  00000+0 0  9992
2 43565  57.3075   1.8215 0001971 254.6233 105.3961  1.70475360 36548
GSAT0219 (PRN E36)      
1 43566U 18060C   24159.82176746 -.00000099  00000+0  00000+0 0  9998
2 43566  57.3069   1.7227 0001991 332.7360  27.2861  1.70475776 36581
GSAT0220 (PRN E13)      
1 43567U 18060D   24158.28262433 -.00000096  00000+0  00000+0 0  9994
2 43567  57.3060   1.7640 0002096 322.1052  37.9167  1.70475542 36533
GSAT0223 (PRN E34)      
1 49809U 21116A   24155.51105705 -.00000088  00000+0  00000+0 0  9997
2 49809  57.2973   1.7332 0001341 126.6486  62.8260  1.70475490 15505
GSAT0224 (PRN E10)      
1 49810U 21116B   24158.24596338 -.00000096  00000+0  00000+0 0  9997
2 49810  57.2986   1.6577 0001214 110.4733  69.9791  1.70475709 15573
GSAT0225 (PRN E29)      
1 59598U 24079A   24159.67074310  .00000006  00000+0  00000+0 0  9991
2 59598  54.6831 121.7770 0021458 254.9581 287.6315  1.72327414   704
GSAT0227 (PRN E06)      
1 59600U 24079C   24158.55519617  .00000007  00000+0  00000+0 0  9996
2 59600  54.6933 121.7836 0006740 239.1554 120.7175  1.70568062   734
